{
  "norad_id": 62563,
  "name": "STARLINK-11536 [DTC]",
  "history": [
    {
      "epoch": "2026-03-28T20:00:01.999872Z",
      "apogee_km": 357.8006386062325,
      "perigee_km": 355.5164653468255,
      "latitude_deg": 25.827512252422533,
      "longitude_deg": -70.82005727255462,
      "height_km": 357.4697522548589,
      "semi_major_axis_km": 6734.795551976529,
      "eccentricity": 0.00016958,
      "inclination_deg": 43.0005,
      "raan_deg": 24.3644,
      "arg_perigee_deg": 260.5683,
      "mean_anomaly_deg": 138.959,
      "mean_motion_rev_day": 15.70782801
    },
    {
      "epoch": "2026-03-29T04:59:21.771168Z",
      "apogee_km": 357.8362497215812,
      "perigee_km": 354.6242259238297,
      "latitude_deg": -2.542135477419113e-05,
      "longitude_deg": 120.6478722653914,
      "height_km": 355.99250631157867,
      "semi_major_axis_km": 6734.367237822706,
      "eccentricity": 0.00023848,
      "inclination_deg": 43.0013,
      "raan_deg": 22.1059,
      "arg_perigee_deg": 270.3951,
      "mean_anomaly_deg": 89.6643,
      "mean_motion_rev_day": 15.70932659
    },
    {
      "epoch": "2026-03-30T11:30:33.946848Z",
      "apogee_km": 357.78420994048975,
      "perigee_km": 354.4160139065898,
      "latitude_deg": 3.908988411174502e-05,
      "longitude_deg": 13.927596148074066,
      "height_km": 355.1655998728821,
      "semi_major_axis_km": 6734.2371119235395,
      "eccentricity": 0.00025008,
      "inclination_deg": 42.9986,
      "raan_deg": 14.4397,
      "arg_perigee_deg": 294.8435,
      "mean_anomaly_deg": 65.2173,
      "mean_motion_rev_day": 15.70978192
    },
    {
      "epoch": "2026-03-30T19:08:21.992064Z",
      "apogee_km": 358.0030993923865,
      "perigee_km": 354.81779314125015,
      "latitude_deg": -2.342921394765028e-05,
      "longitude_deg": -102.75171203322995,
      "height_km": 356.4446571532456,
      "semi_major_axis_km": 6734.547446266818,
      "eccentricity": 0.00023649,
      "inclination_deg": 43.0018,
      "raan_deg": 12.524,
      "arg_perigee_deg": 260.5723,
      "mean_anomaly_deg": 99.4877,
      "mean_motion_rev_day": 15.70869605
    },
    {
      "epoch": "2026-03-31T19:33:19.861344Z",
      "apogee_km": 357.4763365494482,
      "perigee_km": 354.6372004566474,
      "latitude_deg": 2.444482272660905e-05,
      "longitude_deg": -116.12461416775088,
      "height_km": 356.3737323298101,
      "semi_major_axis_km": 6734.193768503047,
      "eccentricity": 0.0002108,
      "inclination_deg": 42.9997,
      "raan_deg": 6.3949,
      "arg_perigee_deg": 247.4577,
      "mean_anomaly_deg": 112.6068,
      "mean_motion_rev_day": 15.70993359
    },
    {
      "epoch": "2026-04-01T10:48:56.551392Z",
      "apogee_km": 356.9945413978012,
      "perigee_km": 355.60320694619804,
      "latitude_deg": -4.643584518341092e-05,
      "longitude_deg": 10.512422060824182,
      "height_km": 355.44525545164896,
      "semi_major_axis_km": 6734.435874172,
      "eccentricity": 0.0001033,
      "inclination_deg": 42.9997,
      "raan_deg": 2.5616,
      "arg_perigee_deg": 26.1711,
      "mean_anomaly_deg": 333.9208,
      "mean_motion_rev_day": 15.70908643
    },
    {
      "epoch": "2026-04-02T20:23:12.885216Z",
      "apogee_km": 357.2995921507918,
      "perigee_km": 355.0314790568009,
      "latitude_deg": -2.3916626987334614e-06,
      "longitude_deg": -142.86740765297048,
      "height_km": 356.48853693330335,
      "semi_major_axis_km": 6734.302535603796,
      "eccentricity": 0.0001684,
      "inclination_deg": 42.9992,
      "raan_deg": 354.1285,
      "arg_perigee_deg": 240.9494,
      "mean_anomaly_deg": 119.1205,
      "mean_motion_rev_day": 15.70955299
    },
    {
      "epoch": "2026-04-02T21:54:46.506528Z",
      "apogee_km": 357.51304911367697,
      "perigee_km": 355.05363880406185,
      "latitude_deg": -1.543481006192077e-05,
      "longitude_deg": -166.20388115355058,
      "height_km": 356.53818422774054,
      "semi_major_axis_km": 6734.420343958869,
      "eccentricity": 0.0001826,
      "inclination_deg": 42.9995,
      "raan_deg": 353.7448,
      "arg_perigee_deg": 246.9081,
      "mean_anomaly_deg": 113.1594,
      "mean_motion_rev_day": 15.70914077
    },
    {
      "epoch": "2026-04-03T02:29:26.965248Z",
      "apogee_km": 357.42207069254073,
      "perigee_km": 354.8987294567323,
      "latitude_deg": 2.677031769321213e-05,
      "longitude_deg": 123.78997801965802,
      "height_km": 356.48404206760137,
      "semi_major_axis_km": 6734.297400074636,
      "eccentricity": 0.00018735,
      "inclination_deg": 42.9993,
      "raan_deg": 352.5952,
      "arg_perigee_deg": 244.0981,
      "mean_anomaly_deg": 115.9694,
      "mean_motion_rev_day": 15.70957096
    },
    {
      "epoch": "2026-04-04T19:41:34.420128Z",
      "apogee_km": 357.31163294245744,
      "perigee_km": 355.5714178514945,
      "latitude_deg": 3.322409830096838e-05,
      "longitude_deg": -146.27998686685794,
      "height_km": 356.7673233696377,
      "semi_major_axis_km": 6734.578525396976,
      "eccentricity": 0.0001292,
      "inclination_deg": 42.9994,
      "raan_deg": 342.2484,
      "arg_perigee_deg": 230.4662,
      "mean_anomaly_deg": 129.6092,
      "mean_motion_rev_day": 15.70858731
    },
    {
      "epoch": "2026-04-05T09:25:39.140832Z",
      "apogee_km": 356.9539649015487,
      "perigee_km": 356.0683586682735,
      "latitude_deg": -1.2538599780006245e-05,
      "longitude_deg": 3.686232046613534,
      "height_km": 355.9530994959736,
      "semi_major_axis_km": 6734.64816178491,
      "eccentricity": 6.575e-05,
      "inclination_deg": 42.999,
      "raan_deg": 338.7984,
      "arg_perigee_deg": 318.1003,
      "mean_anomaly_deg": 41.9814,
      "mean_motion_rev_day": 15.70834367
    },
    {
      "epoch": "2026-04-05T17:03:26.779968Z",
      "apogee_km": 356.6118806854038,
      "perigee_km": 355.84281627680593,
      "latitude_deg": -7.349009661047317e-06,
      "longitude_deg": -112.99250823772319,
      "height_km": 356.0634800722285,
      "semi_major_axis_km": 6734.364348481105,
      "eccentricity": 5.71e-05,
      "inclination_deg": 42.9982,
      "raan_deg": 336.8815,
      "arg_perigee_deg": 260.3211,
      "mean_anomaly_deg": 99.7592,
      "mean_motion_rev_day": 15.7093367
    },
    {
      "epoch": "2026-04-06T00:41:14.292096Z",
      "apogee_km": 357.1563896331918,
      "perigee_km": 355.2752155213202,
      "latitude_deg": -1.4491381111541338e-06,
      "longitude_deg": 130.33028286494968,
      "height_km": 355.76605704031647,
      "semi_major_axis_km": 6734.352802577256,
      "eccentricity": 0.00013967,
      "inclination_deg": 42.9982,
      "raan_deg": 334.9656,
      "arg_perigee_deg": 283.6504,
      "mean_anomaly_deg": 76.4208,
      "mean_motion_rev_day": 15.7093771
    },
    {
      "epoch": "2026-04-07T01:06:11.127168Z",
      "apogee_km": 357.5355386263045,
      "perigee_km": 355.309093316444,
      "latitude_deg": 3.603629182700283e-05,
      "longitude_deg": 116.96038672999042,
      "height_km": 356.555726252551,
      "semi_major_axis_km": 6734.559315971374,
      "eccentricity": 0.0001653,
      "inclination_deg": 42.9994,
      "raan_deg": 328.8352,
      "arg_perigee_deg": 251.0802,
      "mean_anomaly_deg": 108.9887,
      "mean_motion_rev_day": 15.70865452
    },
    {
      "epoch": "2026-04-07T16:21:46.604160Z",
      "apogee_km": 357.62117315540763,
      "perigee_km": 354.442645430222,
      "latitude_deg": -1.7694894894490288e-05,
      "longitude_deg": -116.39979319501386,
      "height_km": 356.625718691821,
      "semi_major_axis_km": 6734.1689092928145,
      "eccentricity": 0.000236,
      "inclination_deg": 43.0011,
      "raan_deg": 324.9996,
      "arg_perigee_deg": 238.9011,
      "mean_anomaly_deg": 121.1625,
      "mean_motion_rev_day": 15.71002058
    },
    {
      "epoch": "2026-04-07T23:59:35.011392Z",
      "apogee_km": 357.63663049647494,
      "perigee_km": 355.20653237794886,
      "latitude_deg": 1.7372235855768126e-05,
      "longitude_deg": 126.91848885435874,
      "height_km": 356.3054819176054,
      "semi_major_axis_km": 6734.558581437212,
      "eccentricity": 0.00018042,
      "inclination_deg": 43.0004,
      "raan_deg": 323.0829,
      "arg_perigee_deg": 264.7533,
      "mean_anomaly_deg": 95.3129,
      "mean_motion_rev_day": 15.70865709
    },
    {
      "epoch": "2026-04-09T14:08:34.133280Z",
      "apogee_km": 356.6178592654378,
      "perigee_km": 355.7073819567322,
      "latitude_deg": -4.468367910428136e-05,
      "longitude_deg": -96.4744781385104,
      "height_km": 356.27535140679004,
      "semi_major_axis_km": 6734.299620611085,
      "eccentricity": 6.76e-05,
      "inclination_deg": 42.9957,
      "raan_deg": 313.5031,
      "arg_perigee_deg": 138.812,
      "mean_anomaly_deg": 221.2798,
      "mean_motion_rev_day": 15.70956319
    }
  ]
}